IRIDIUM 119             
1 42959U 17061E   25050.95646639  .00000002  00000+0 -62229-5 0  9992
2 42959  86.3954 226.7139 0002213  96.9727 263.1720 14.34217428385692
IRIDIUM 107             
1 42960U 17061F   25050.90572560 -.00000045  00000+0 -22970-4 0  9996
2 42960  86.3955 226.7536 0002459  91.7914 268.3563 14.34218798385692
IRIDIUM 132             
1 42961U 17061G   25050.91206573  .00000137  00000+0  41833-4 0  9995
2 42961  86.3950 226.7335 0002188  89.6443 270.5004 14.34218538385694
IRIDIUM 136             
1 42962U 17061H   25050.94377763  .00000381  00000+0  12908-3 0  9990
2 42962  86.3947 226.7251 0002485  94.3349 265.8130 14.34214484385712
IRIDIUM 139             
1 42963U 17061J   25050.95012445 -.00000107  00000+0 -45206-4 0  9991
2 42963  86.3956 226.7763 0002304  90.0192 270.1268 14.34217676385728
IRIDIUM 135             
1 43070U 17083A   25050.70225909  .00000031  00000+0  41731-5 0  9993
2 43070  86.4039 163.6934 0001888  97.2621 262.8790 14.34217189374996
IRIDIUM 138             
1 43071U 17083B   25050.79738709  .00000197  00000+0  63439-4 0  9991
2 43071  86.4030 163.3401 0002253 114.1284 246.0148 14.34213755374991
